1 27424U 02022A   10182.04911427  .00000077  00000-0  27068-4 0  6791
2 27424 098.1881 123.1262 0002146 070.4363 289.7084 14.57127758433936